NAYIF-1 (EO-88)         
1 42017U 17008BX  20110.28759506  .00001448  00000-0  58514-4 0  9990
2 42017  97.3641 178.7047 0006830 157.1818 202.9725 15.26332446176522
MAX VALIER SAT          
1 42778U 17036P   20110.45667367  .00000827  00000-0  38578-4 0  9995
2 42778  97.3113 165.7067 0011015 223.4715 136.5655 15.22514653156757
RADFXSAT (FOX-1B)       
1 43017U 17073E   20109.98439211  .00000286  00000-0  28288-4 0  9990
2 43017  97.7251  24.5108 0255770 243.9985 113.4683 14.78884124130371
FOX-1D (AO-92)          
1 43137U 18004AC  20110.19693406  .00000931  00000-0  41385-4 0  9991
2 43137  97.4493 181.7506 0007512 262.3815  97.6569 15.24010618126027
DIWATA-2B               
1 43678U 18084H   20110.44195329  .00000398  00000-0  45280-4 0  9993
2 43678  97.8743 228.8777 0010563  20.4851 339.6769 14.91624263 80227
ES'HAIL 2               
1 43700U 18090A   20110.17132826  .00000133  00000-0  00000+0 0  9992
2 43700   0.0373  90.1923 0002625 334.6656 230.3541  1.00274278  5353
FOX-1CLIFF (AO-95)      
1 43770U 18099N   20109.93876511  .00000548  00000-0  55288-4 0  9999
2 43770  97.7092 182.3460 0015422  41.0882 319.1497 14.94950840 75020
ITASAT 1                
1 43786U 18099AE  20109.74852568  .00000629  00000-0  62190-4 0  9991
2 43786  97.7109 182.5357 0015972  35.6683 324.5602 14.95296521 75018
JY1SAT (JO-97)          
1 43803U 18099AX  20110.43905119 -.00000043  00000-0  12918-5 0  9995
2 43803  97.7069 183.0484 0015951  33.5175 326.7052 14.95467099 75114
PSAT2 (NO-104)          
1 44354U 19036R   20110.16340025  .00014030  00000-0  20774-3 0  9995
2 44354  28.5304  49.7507 0368250  38.2369 324.3751 15.02501860 44899
BRICSAT2 (NO-103)       
1 44355U 19036S   20110.17026844  .00026392  00000-0  37809-3 0  9998
2 44355  28.5305  43.9592 0350401  47.6387 315.3329 15.07005618 44957
JAISAT-1                
1 44419U 19038F   20110.15518882  .00000871  00000-0  53300-4 0  9996
2 44419  97.5329  72.4713 0021089 339.5122  20.5260 15.12689585 43639
DUCHIFAT-3              
1 44854U 19089C   20110.34573462  .00000395  00000-0  38351-4 0  9991
2 44854  36.9671  87.6553 0009292 304.3571  55.6307 14.99025596 19420
ORBITAL FACTORY 2 (OF-2)
1 45113U 19071C   20110.43237274  .00002430  00000-0  86235-4 0  9995
2 45113  51.6427 288.6176 0012964 202.4423 157.5993 15.33131183 12076
HUSKYSAT-1              
1 45119U 19071J   20109.96330647  .00001976  00000-0  71796-4 0  9995
2 45119  51.6425 290.7365 0012253 196.7748 163.2830 15.33368213 11990
